STARLINK-36724          
1 67914U 26036L   26066.16670139 -.00001811  00000+0 -60656-5 0  9997
2 67914  42.9997 265.1525 0001930 273.5583  20.4744 15.82017499  3247
STARLINK-36723          
1 67915U 26036M   26066.16670139 -.00092206  00000+0 -43911-3 0  9999
2 67915  42.9992 265.1636 0002156 285.5499   4.2000 15.82057425  3244
STARLINK-36721          
1 67916U 26036N   26066.16670139 -.00005465  00000+0 -23430-4 0  9996
2 67916  42.9993 265.1420 0002132 284.6934  13.6119 15.82016295  3240
STARLINK-36722          
1 67917U 26036P   26066.16670139 -.00044675  00000+0 -21064-3 0  9993
2 67917  42.9993 265.1311 0002227 259.5882  42.9921 15.82021756  3242
STARLINK-36341          
1 67918U 26036Q   26066.16670139 -.00083303  00000+0 -39635-3 0  9998
2 67918  42.9993 265.1090 0002393 243.0888  68.0448 15.82040950  3245
STARLINK-36663          
1 67919U 26036R   26066.16670139  .00010455  00000+0  52125-4 0  9995
2 67919  42.9993 265.1209 0002012 265.1324  41.7136 15.82014616  3248
STARLINK-36375          
1 67920U 26036S   26066.16670139  .00166236  00000+0  77699-3 0  9998
2 67920  42.9995 265.0989 0002324 259.7265  55.6669 15.82013081  3245
STARLINK-36405          
1 67921U 26036T   26066.16670139 -.00053136  00000+0 -25095-3 0  9998
2 67921  42.9995 265.0881 0002139 266.5852  53.0774 15.82047995  3249
STARLINK-36383          
1 67922U 26036U   26066.16670139 -.00301635  00000+0 -14714-2 0  9994
2 67922  42.9991 265.0777 0001608 261.3891  62.5864 15.82143811  3245
STARLINK-36406          
1 67923U 26036V   26066.16670139 -.00097432  00000+0 -46412-3 0  9993
2 67923  42.9993 265.0664 0002356 277.1864  51.0381 15.82070282  3247
STARLINK-36714          
1 67924U 26036W   26066.16670139 -.00145683  00000+0 -69898-3 0  9999
2 67924  42.9990 265.0557 0002227 264.7171  67.7772 15.82074144  3245
STARLINK-36726          
1 67925U 26036X   26066.16670139 -.00087004  00000+0 -41409-3 0  9990
2 67925  42.9992 265.0452 0002045 264.0410  72.7106 15.82050527  3245
STARLINK-36758          
1 67926U 26036Y   26066.16670139 -.00003880  00000+0 -15905-4 0  9994
2 67926  42.9994 265.0343 0001705 300.1471  40.8884 15.82011290  3241
STARLINK-36728          
1 67927U 26036Z   26066.16670139 -.00048124  00000+0 -22700-3 0  9995
2 67927  42.9994 265.0126 0002337 267.3317  82.2369 15.82038528  3247
STARLINK-36771          
1 67928U 26036AA  26066.16670139  .00015714  00000+0  77071-4 0  9995
2 67928  42.9995 265.0233 0002139 256.5314  88.7813 15.82001678  3246
STARLINK-36809          
1 67929U 26036AB  26066.16670139 -.00020111  00000+0 -93198-4 0  9993
2 67929  43.0015 265.0013 0002420 243.7526 110.1189 15.82010559  3248
