[{"OBJECT_NAME":"STARLINK-36724","OBJECT_ID":"2026-036L","EPOCH":"2026-03-07T04:00:03.000096","MEAN_MOTION":15.82017499,"ECCENTRICITY":0.000193,"INCLINATION":42.9997,"RA_OF_ASC_NODE":265.1525,"ARG_OF_PERICENTER":273.5583,"MEAN_ANOMALY":20.4744,"EPHEMERIS_TYPE":0,"CLASSIFICATION_TYPE":"U","NORAD_CAT_ID":67914,"ELEMENT_SET_NO":999,"REV_AT_EPOCH":324,"BSTAR":-6.0656e-6,"MEAN_MOTION_DOT":-1.811e-5,"MEAN_MOTION_DDOT":0},{"OBJECT_NAME":"STARLINK-36723","OBJECT_ID":"2026-036M","EPOCH":"2026-03-07T04:00:03.000096","MEAN_MOTION":15.82057425,"ECCENTRICITY":0.0002156,"INCLINATION":42.9992,"RA_OF_ASC_NODE":265.1636,"ARG_OF_PERICENTER":285.5499,"MEAN_ANOMALY":4.2,"EPHEMERIS_TYPE":0,"CLASSIFICATION_TYPE":"U","NORAD_CAT_ID":67915,"ELEMENT_SET_NO":999,"REV_AT_EPOCH":324,"BSTAR":-0.00043911,"MEAN_MOTION_DOT":-0.00092206,"MEAN_MOTION_DDOT":0},{"OBJECT_NAME":"STARLINK-36721","OBJECT_ID":"2026-036N","EPOCH":"2026-03-07T04:00:03.000096","MEAN_MOTION":15.82016295,"ECCENTRICITY":0.0002132,"INCLINATION":42.9993,"RA_OF_ASC_NODE":265.142,"ARG_OF_PERICENTER":284.6934,"MEAN_ANOMALY":13.6119,"EPHEMERIS_TYPE":0,"CLASSIFICATION_TYPE":"U","NORAD_CAT_ID":67916,"ELEMENT_SET_NO":999,"REV_AT_EPOCH":324,"BSTAR":-2.343e-5,"MEAN_MOTION_DOT":-5.465e-5,"MEAN_MOTION_DDOT":0},{"OBJECT_NAME":"STARLINK-36722","OBJECT_ID":"2026-036P","EPOCH":"2026-03-07T04:00:03.000096","MEAN_MOTION":15.82021756,"ECCENTRICITY":0.0002227,"INCLINATION":42.9993,"RA_OF_ASC_NODE":265.1311,"ARG_OF_PERICENTER":259.5882,"MEAN_ANOMALY":42.9921,"EPHEMERIS_TYPE":0,"CLASSIFICATION_TYPE":"U","NORAD_CAT_ID":67917,"ELEMENT_SET_NO":999,"REV_AT_EPOCH":324,"BSTAR":-0.00021064,"MEAN_MOTION_DOT":-0.00044675,"MEAN_MOTION_DDOT":0},{"OBJECT_NAME":"STARLINK-36341","OBJECT_ID":"2026-036Q","EPOCH":"2026-03-07T04:00:03.000096","MEAN_MOTION":15.8204095,"ECCENTRICITY":0.0002393,"INCLINATION":42.9993,"RA_OF_ASC_NODE":265.109,"ARG_OF_PERICENTER":243.0888,"MEAN_ANOMALY":68.0448,"EPHEMERIS_TYPE":0,"CLASSIFICATION_TYPE":"U","NORAD_CAT_ID":67918,"ELEMENT_SET_NO":999,"REV_AT_EPOCH":324,"BSTAR":-0.00039635,"MEAN_MOTION_DOT":-0.00083303,"MEAN_MOTION_DDOT":0},{"OBJECT_NAME":"STARLINK-36663","OBJECT_ID":"2026-036R","EPOCH":"2026-03-07T04:00:03.000096","MEAN_MOTION":15.82014616,"ECCENTRICITY":0.0002012,"INCLINATION":42.9993,"RA_OF_ASC_NODE":265.1209,"ARG_OF_PERICENTER":265.1324,"MEAN_ANOMALY":41.7136,"EPHEMERIS_TYPE":0,"CLASSIFICATION_TYPE":"U","NORAD_CAT_ID":67919,"ELEMENT_SET_NO":999,"REV_AT_EPOCH":324,"BSTAR":5.2125e-5,"MEAN_MOTION_DOT":0.00010455,"MEAN_MOTION_DDOT":0},{"OBJECT_NAME":"STARLINK-36375","OBJECT_ID":"2026-036S","EPOCH":"2026-03-07T04:00:03.000096","MEAN_MOTION":15.82013081,"ECCENTRICITY":0.0002324,"INCLINATION":42.9995,"RA_OF_ASC_NODE":265.0989,"ARG_OF_PERICENTER":259.7265,"MEAN_ANOMALY":55.6669,"EPHEMERIS_TYPE":0,"CLASSIFICATION_TYPE":"U","NORAD_CAT_ID":67920,"ELEMENT_SET_NO":999,"REV_AT_EPOCH":324,"BSTAR":0.00077699,"MEAN_MOTION_DOT":0.00166236,"MEAN_MOTION_DDOT":0},{"OBJECT_NAME":"STARLINK-36405","OBJECT_ID":"2026-036T","EPOCH":"2026-03-07T04:00:03.000096","MEAN_MOTION":15.82047995,"ECCENTRICITY":0.0002139,"INCLINATION":42.9995,"RA_OF_ASC_NODE":265.0881,"ARG_OF_PERICENTER":266.5852,"MEAN_ANOMALY":53.0774,"EPHEMERIS_TYPE":0,"CLASSIFICATION_TYPE":"U","NORAD_CAT_ID":67921,"ELEMENT_SET_NO":999,"REV_AT_EPOCH":324,"BSTAR":-0.00025095,"MEAN_MOTION_DOT":-0.00053136,"MEAN_MOTION_DDOT":0},{"OBJECT_NAME":"STARLINK-36383","OBJECT_ID":"2026-036U","EPOCH":"2026-03-07T04:00:03.000096","MEAN_MOTION":15.82143811,"ECCENTRICITY":0.0001608,"INCLINATION":42.9991,"RA_OF_ASC_NODE":265.0777,"ARG_OF_PERICENTER":261.3891,"MEAN_ANOMALY":62.5864,"EPHEMERIS_TYPE":0,"CLASSIFICATION_TYPE":"U","NORAD_CAT_ID":67922,"ELEMENT_SET_NO":999,"REV_AT_EPOCH":324,"BSTAR":-0.0014714,"MEAN_MOTION_DOT":-0.00301635,"MEAN_MOTION_DDOT":0},{"OBJECT_NAME":"STARLINK-36406","OBJECT_ID":"2026-036V","EPOCH":"2026-03-07T04:00:03.000096","MEAN_MOTION":15.82070282,"ECCENTRICITY":0.0002356,"INCLINATION":42.9993,"RA_OF_ASC_NODE":265.0664,"ARG_OF_PERICENTER":277.1864,"MEAN_ANOMALY":51.0381,"EPHEMERIS_TYPE":0,"CLASSIFICATION_TYPE":"U","NORAD_CAT_ID":67923,"ELEMENT_SET_NO":999,"REV_AT_EPOCH":324,"BSTAR":-0.00046412,"MEAN_MOTION_DOT":-0.00097432,"MEAN_MOTION_DDOT":0},{"OBJECT_NAME":"STARLINK-36714","OBJECT_ID":"2026-036W","EPOCH":"2026-03-07T04:00:03.000096","MEAN_MOTION":15.82074144,"ECCENTRICITY":0.0002227,"INCLINATION":42.999,"RA_OF_ASC_NODE":265.0557,"ARG_OF_PERICENTER":264.7171,"MEAN_ANOMALY":67.7772,"EPHEMERIS_TYPE":0,"CLASSIFICATION_TYPE":"U","NORAD_CAT_ID":67924,"ELEMENT_SET_NO":999,"REV_AT_EPOCH":324,"BSTAR":-0.00069898,"MEAN_MOTION_DOT":-0.00145683,"MEAN_MOTION_DDOT":0},{"OBJECT_NAME":"STARLINK-36726","OBJECT_ID":"2026-036X","EPOCH":"2026-03-07T04:00:03.000096","MEAN_MOTION":15.82050527,"ECCENTRICITY":0.0002045,"INCLINATION":42.9992,"RA_OF_ASC_NODE":265.0452,"ARG_OF_PERICENTER":264.041,"MEAN_ANOMALY":72.7106,"EPHEMERIS_TYPE":0,"CLASSIFICATION_TYPE":"U","NORAD_CAT_ID":67925,"ELEMENT_SET_NO":999,"REV_AT_EPOCH":324,"BSTAR":-0.00041409,"MEAN_MOTION_DOT":-0.00087004,"MEAN_MOTION_DDOT":0},{"OBJECT_NAME":"STARLINK-36758","OBJECT_ID":"2026-036Y","EPOCH":"2026-03-07T04:00:03.000096","MEAN_MOTION":15.8201129,"ECCENTRICITY":0.0001705,"INCLINATION":42.9994,"RA_OF_ASC_NODE":265.0343,"ARG_OF_PERICENTER":300.1471,"MEAN_ANOMALY":40.8884,"EPHEMERIS_TYPE":0,"CLASSIFICATION_TYPE":"U","NORAD_CAT_ID":67926,"ELEMENT_SET_NO":999,"REV_AT_EPOCH":324,"BSTAR":-1.5905e-5,"MEAN_MOTION_DOT":-3.88e-5,"MEAN_MOTION_DDOT":0},{"OBJECT_NAME":"STARLINK-36728","OBJECT_ID":"2026-036Z","EPOCH":"2026-03-07T04:00:03.000096","MEAN_MOTION":15.82038528,"ECCENTRICITY":0.0002337,"INCLINATION":42.9994,"RA_OF_ASC_NODE":265.0126,"ARG_OF_PERICENTER":267.3317,"MEAN_ANOMALY":82.2369,"EPHEMERIS_TYPE":0,"CLASSIFICATION_TYPE":"U","NORAD_CAT_ID":67927,"ELEMENT_SET_NO":999,"REV_AT_EPOCH":324,"BSTAR":-0.000227,"MEAN_MOTION_DOT":-0.00048124,"MEAN_MOTION_DDOT":0},{"OBJECT_NAME":"STARLINK-36771","OBJECT_ID":"2026-036AA","EPOCH":"2026-03-07T04:00:03.000096","MEAN_MOTION":15.82001678,"ECCENTRICITY":0.0002139,"INCLINATION":42.9995,"RA_OF_ASC_NODE":265.0233,"ARG_OF_PERICENTER":256.5314,"MEAN_ANOMALY":88.7813,"EPHEMERIS_TYPE":0,"CLASSIFICATION_TYPE":"U","NORAD_CAT_ID":67928,"ELEMENT_SET_NO":999,"REV_AT_EPOCH":324,"BSTAR":7.7071e-5,"MEAN_MOTION_DOT":0.00015714,"MEAN_MOTION_DDOT":0},{"OBJECT_NAME":"STARLINK-36809","OBJECT_ID":"2026-036AB","EPOCH":"2026-03-07T04:00:03.000096","MEAN_MOTION":15.82010559,"ECCENTRICITY":0.000242,"INCLINATION":43.0015,"RA_OF_ASC_NODE":265.0013,"ARG_OF_PERICENTER":243.7526,"MEAN_ANOMALY":110.1189,"EPHEMERIS_TYPE":0,"CLASSIFICATION_TYPE":"U","NORAD_CAT_ID":67929,"ELEMENT_SET_NO":999,"REV_AT_EPOCH":324,"BSTAR":-9.3198e-5,"MEAN_MOTION_DOT":-0.00020111,"MEAN_MOTION_DDOT":0}]
